[{"OBJECT_NAME":"PHISAT 2","OBJECT_ID":"2024-149C","EPOCH":"2026-03-09T18:55:12.732384","MEAN_MOTION":15.29548632,"ECCENTRICITY":0.00011753,"INCLINATION":97.3806,"RA_OF_ASC_NODE":148.6498,"ARG_OF_PERICENTER":168.623,"MEAN_ANOMALY":191.5037,"EPHEMERIS_TYPE":0,"CLASSIFICATION_TYPE":"U","NORAD_CAT_ID":60470,"ELEMENT_SET_NO":999,"REV_AT_EPOCH":8679,"BSTAR":0.00031420974,"MEAN_MOTION_DOT":8.925e-5,"MEAN_MOTION_DDOT":0},{"OBJECT_NAME":"STARLINK-35824","OBJECT_ID":"2025-254Y","EPOCH":"2026-03-09T17:36:01.579104","MEAN_MOTION":15.30201559,"ECCENTRICITY":0.00010412,"INCLINATION":53.1578,"RA_OF_ASC_NODE":229.988,"ARG_OF_PERICENTER":73.2932,"MEAN_ANOMALY":286.8183,"EPHEMERIS_TYPE":0,"CLASSIFICATION_TYPE":"U","NORAD_CAT_ID":66370,"ELEMENT_SET_NO":999,"REV_AT_EPOCH":1901,"BSTAR":0.0010895715,"MEAN_MOTION_DOT":0.00032052,"MEAN_MOTION_DDOT":0}]
